OPS 6582 (TRANSIT 5B-5) 
1 00965U 64083D   23017.41861858  .00000110  00000+0  14116-3 0  9992
2 00965  90.0284 196.1251 0039982 325.7840  43.1421 13.56801108874535
OSCAR 7 (AO-7)          
1 07530U 74089B   23017.19396057 -.00000012  00000+0  21429-3 0  9990
2 07530 101.9323   2.9433 0012254 353.6164  17.9285 12.53660295204253
UOSAT 2 (UO-11)         
1 14781U 84021B   23017.41601640  .00002968  00000+0  36106-3 0  9994
2 14781  97.6402   0.4182 0007856 349.4920  10.6130 14.84152930 71773
NOAA 9                  
1 15427U 84123A   23017.22592346  .00000329  00000+0  18944-3 0  9995
2 15427  99.0735 358.2658 0013917 280.7873  90.2090 14.16271095966879
LUSAT (LO-19)           
1 20442U 90005G   23017.37456825  .00000426  00000+0  17190-3 0  9991
2 20442  98.8247 350.8385 0010658 260.5396  99.4583 14.33143352723745
ITAMSAT (IO-26)         
1 22826U 93061D   23017.35324056  .00000276  00000+0  12348-3 0  9995
2 22826  98.8581  57.5190 0009793 130.5276 229.6761 14.30583470528991
RADIO ROSTO (RS-15)     
1 23439U 94085A   23017.84956735 -.00000039  00000+0  10000-3 0  9993
2 23439  64.8135 158.8440 0166291 236.0396 122.4625 11.27573215155663
JAS-2 (FO-29)           
1 24278U 96046B   23017.42387619  .00000050  00000+0  83228-4 0  9992
2 24278  98.5156  16.6280 0351300  88.0629 276.0698 13.53128375304549
NOAA 15                 
1 25338U 98030A   23017.82049257  .00000292  00000+0  13977-3 0  9993
2 25338  98.6237  49.3241 0010932  37.5617 322.6325 14.26224612283821
TECHSAT 1B (GO-32)      
1 25397U 98043D   23017.34673232  .00000222  00000+0  11675-3 0  9991
2 25397  98.8483 333.6835 0001145 159.0931 201.0294 14.23806310273860
ISS (ZARYA)             
1 25544U 98067A   23017.90059159  .00019614  00000+0  34649-3 0  9990
2 25544  51.6449 352.9452 0004467 278.4611 172.5215 15.50346151378485
ORSTED                  
1 25635U 99008B   23017.76317046  .00001862  00000+0  44653-3 0  9995
2 25635  96.4420 197.3032 0136785 216.4504 142.7324 14.48692386261570
PHASE 3D (AO-40)        
1 26609U 00072B   23016.94328315 -.00000212  00000+0  00000+0 0  9993
2 26609   5.5160 214.3690 7959056 110.1114 344.1641  1.25588886101834
PCSAT (NO-44)           
1 26931U 01043C   23017.28987232  .00000347  00000+0  16394-3 0  9992
2 26931  67.0493 226.4178 0005462 279.8493  80.1992 14.30795671111994
SAUDISAT 1C (SO-50)     
1 27607U 02058C   23017.24369813  .00002950  00000+0  41979-3 0  9994
2 27607  64.5565   7.4749 0079623 254.0360 105.1960 14.76611927 79937
CUTE-1 (CO-55)          
1 27844U 03031E   23017.46493945  .00000676  00000+0  32187-3 0  9991
2 27844  98.6794  26.9355 0009522 196.5652 163.5216 14.22590983 14307
CUBESAT XI-IV (CO-57)   
1 27848U 03031J   23017.28467129  .00000579  00000+0  28100-3 0  9992
2 27848  98.6833  27.2254 0009131 212.3517 147.7102 14.22128123 14053
MOZHAYETS 4 (RS-22)     
1 27939U 03042A   23017.69615406  .00002619  00000+0  46768-3 0  9990
2 27939  98.2170 163.8045 0011597 250.1064 109.8895 14.67762056 32466
INMARSAT 4-F1           
1 28628U 05009A   23017.61976872 -.00000244  00000+0  00000+0 0  9998
2 28628   3.7771  37.1778 0002671 266.9935 179.2085  1.00272355 65178
NOAA 18                 
1 28654U 05018A   23017.79520465  .00000334  00000+0  20351-3 0  9993
2 28654  98.9274  92.8272 0015188  86.6672 273.6237 14.12842240910338
CUBESAT XI-V            
1 28895U 05043F   23017.84228056  .00002874  00000+0  54605-3 0  9995
2 28895  98.1305 151.3480 0016374 182.4462 177.6663 14.64857464919026
METOP-A                 
1 29499U 06044A   23017.61285514  .00002686  00000+0  35883-3 0  9993
2 29499  98.4243  73.7821 0197332  56.4033  96.6011 14.67791040842083
CARTOSAT-2 (IRS-P7)     
1 29710U 07001B   23017.31736730  .00032625  00000+0  64803-3 0  9991
2 29710  97.8759 141.5838 0127912  23.4748 337.2263 15.38425465869008
FALCONSAT-3             
1 30776U 07006E   23017.39799201  .01491179  15191-2  14582-2 0  9992
2 30776  35.4192 269.9029 0010063 276.5820  83.3784 16.10636927883166
CAPE-1                  
1 31130U 07012P   23017.32061725  .00003712  00000+0  77698-3 0  9999
2 31130  98.2924 321.6810 0094249 351.4488   8.5100 14.57611891836246
CARTOSAT-2A             
1 32783U 08021A   23017.72904696  .00001887  00000+0  26427-3 0  9997
2 32783  97.9390  80.4610 0012051 189.2501 170.8487 14.78656346794685
CUTE-1.7+APD II (CO-65) 
1 32785U 08021C   23017.45388457  .00006312  00000+0  64890-3 0  9994
2 32785  97.6862 346.9928 0010984 240.0436 119.9692 14.90636128798356
COMPASS-1               
1 32787U 08021E   23017.39567489  .00010026  00000+0  85488-3 0  9996
2 32787  97.5849 357.5959 0012246 143.5414 216.6645 14.97869119800059
AAUSAT-II               
1 32788U 08021F   23017.39214899  .00011181  00000+0  90466-3 0  9996
2 32788  97.5545   0.6937 0010535 119.3643 240.8635 14.99878411800470
DELFI-C3 (DO-64)        
1 32789U 08021G   23017.32621785  .00036284  00000+0  16409-2 0  9991
2 32789  97.3227  41.5286 0006938 305.4452  54.6136 15.20807644804347
SEEDS II (CO-66)        
1 32791U 08021J   23017.39934580  .00008224  00000+0  77109-3 0  9999
2 32791  97.6377 352.2338 0012225 188.1184 171.9841 14.94206938799127
YUBILEINY (RS-30)       
1 32953U 08025A   23017.38141311  .00000024  00000+0  10000-3 0  9991
2 32953  82.5035  50.8916 0020058 150.6828 209.5381 12.43117556664910
FENGYUN 3A              
1 32958U 08026A   23017.29835906  .00000294  00000+0  16147-3 0  9994
2 32958  98.5349 336.5210 0009651 121.1701 239.0422 14.18785077758540
PRISM (HITOMI)          
1 33493U 09002B   23017.48579501  .00012337  00000+0  93288-3 0  9993
2 33493  98.2500  21.8783 0017299 187.3225 172.7748 15.02390720761080
STARS (KUKAI)           
1 33498U 09002G   23017.45766256  .00004838  00000+0  63424-3 0  9996
2 33498  98.1496 277.8910 0009170 284.5605  75.4589 14.80782157753092
KKS-1 (KISEKI)          
1 33499U 09002H   23017.57256060  .00002654  00000+0  38903-3 0  9995
2 33499  98.1918 267.8544 0008890 359.2497   0.8697 14.76437774751830
NOAA 19                 
1 33591U 09005A   23017.53781930  .00000315  00000+0  19472-3 0  9998
2 33591  99.1230  60.9030 0013112 309.0401  50.9603 14.12669255718415
SWISSCUBE               
1 35932U 09051B   23017.43335840  .00001953  00000+0  44289-3 0  9997
2 35932  98.5414 244.0694 0008528 106.7649 253.4484 14.57216090707256
BEESAT-1                
1 35933U 09051C   23017.52598474  .00001771  00000+0  40304-3 0  9994
2 35933  98.5347 245.6318 0006642 116.3544 243.8336 14.57189622707347
ITUPSAT1                
1 35935U 09051E   23017.05735963  .00001646  00000+0  38261-3 0  9990
2 35935  98.5450 245.1481 0008873 123.0713 237.1337 14.56273396706966
XIWANG-1 (HOPE-1)       
1 36122U 09072B   23017.29628045 -.00000020  00000+0  61868-4 0  9996
2 36122 100.2163 346.0830 0007160 205.6962 154.3797 13.16376562628942
CARTOSAT-2B             
1 36795U 10035A   23017.76667354  .00001437  00000+0  20282-3 0  9997
2 36795  97.9331  80.4971 0012156 272.7879  87.1943 14.78683315675736
TISAT 1                 
1 36799U 10035E   23017.38652501  .00006328  00000+0  59464-3 0  9995
2 36799  98.1576 241.1308 0012754 108.2899 251.9708 14.94238546679692
FENGYUN 3B              
1 37214U 10059A   23017.50322599  .00000080  00000+0  65832-4 0  9995
2 37214  99.0912  32.2678 0023171 110.6671 249.7017 14.14285772631217
JUGNU                   
1 37839U 11058B   23017.90184986  .00000659  00000+0  20788-3 0  9990
2 37839  19.9621 314.6825 0018767   2.0418  44.8046 14.12859541582611
SRMSAT                  
1 37841U 11058D   23017.42666896  .00000581  00000+0  17402-3 0  9998
2 37841  19.9734  41.4753 0011866 173.8810 217.3453 14.10815832581497
M-CUBED & EXP-1 PRIME   
1 37855U 11061F   23017.41169899  .00020482  00000+0  79224-3 0  9999
2 37855 101.7119 255.9648 0139205 138.9025 222.2779 15.17693913613621
HORYU-2                 
1 38340U 12025D   23017.49722018  .00004449  00000+0  63245-3 0  9997
2 38340  98.1801 104.0018 0010006 261.1312  98.8765 14.77380467563839
METOP-B                 
1 38771U 12049A   23017.75619972  .00000266  00000+0  14153-3 0  9991
2 38771  98.7020  79.4890 0001620 109.0580 353.6248 14.21499054536175
SARAL                   
1 39086U 13009A   23017.75091458  .00000275  00000+0  11852-3 0  9994
2 39086  98.5453 205.2388 0001473  48.8030 311.3281 14.32068162517159
AAUSAT 3                
1 39087U 13009B   23017.28374315  .00001115  00000+0  39480-3 0  9990
2 39087  98.3834 216.3521 0012473 352.6047   7.4986 14.36425900518279
STRAND-1                
1 39090U 13009E   23017.30876169  .00000637  00000+0  23642-3 0  9992
2 39090  98.3912 214.7633 0009030   1.5833 358.5380 14.35416196518076
BRITE-AUSTRIA           
1 39091U 13009F   23017.50736704  .00000445  00000+0  16973-3 0  9991
2 39091  98.3934 214.1603 0010571   6.8373 353.2955 14.35361621518130
UNIBRITE                
1 39092U 13009G   23017.47854726  .00000439  00000+0  16840-3 0  9999
2 39092  98.3970 213.9361 0009407   3.1409 356.9834 14.35232876518084
SOMP                    
1 39134U 13015E   23017.53791785  .00050144  00000+0  13231-2 0  9993
2 39134  64.8586  75.4204 0025529 255.5600 104.2703 15.37851673539658
BEESAT-3                
1 39135U 13015F   23017.24802565  .00036102  00000+0  12065-2 0  9993
2 39135  64.8632 118.6549 0032138 253.2991 106.4613 15.30334824538745
BEESAT-2                
1 39136U 13015G   23017.59280929  .00032794  00000+0  11580-2 0  9990
2 39136  64.8721 127.1868 0026267 288.8097  71.0186 15.28750880538575
NEE-01 PEGASO           
1 39151U 13018B   23017.58599217  .00004545  00000+0  58314-3 0  9992
2 39151  97.9997 127.7454 0015360 282.3072  77.6421 14.81652979525371
CUBEBUG-1 (CAPITAN BETO)
1 39153U 13018D   23017.27515991  .00005022  00000+0  63103-3 0  9990
2 39153  98.0250 132.7335 0015129 277.1585  82.7908 14.82484333525426
